{
  "type": "FeatureCollection",
  "features": [
    {
      "type": "Feature",
      "properties": {
        "norad_id": 66954,
        "name": "HULIANWANG DIGUI-115",
        "group": "last-30-days",
        "lat": -17.418052621729974,
        "lon": 162.18680933869095,
        "alt_km": 1027.8954445307845,
        "timestamp": "2025-12-26T17:24:53.442502+00:00",
        "meta_object_name": "HULIANWANG DIGUI-115",
        "meta_object_id": "2025-287B",
        "meta_epoch": "2025-12-24T22:10:56.489088",
        "meta_mean_motion": 13.63539042,
        "meta_eccentricity": 0.0003385,
        "meta_inclination": 86.5036,
        "meta_ra_of_asc_node": 341.7372,
        "meta_arg_of_pericenter": 109.9724,
        "meta_mean_anomaly": 250.1798,
        "meta_ephemeris_type": 0,
        "meta_classification_type": "U",
        "meta_norad_cat_id": 66954,
        "meta_element_set_no": 999,
        "meta_rev_at_epoch": 219,
        "meta_bstar": 8.442119e-06,
        "meta_mean_motion_dot": 2.3e-07,
        "meta_mean_motion_ddot": 0,
        "tle_line1": "1 66954U 25287B   25358.92426492  .00000023  00000+0  84421-5 0  9993",
        "tle_line2": "2 66954  86.5036 341.7372 0003385 109.9724 250.1798 13.63539042  2198"
      },
      "geometry": {
        "type": "Point",
        "coordinates": [
          162.18680933869095,
          -17.418052621729974
        ]
      }
    },
    {
      "type": "Feature",
      "properties": {
        "norad_id": 66955,
        "name": "HULIANWANG DIGUI-116",
        "group": "last-30-days",
        "lat": -33.96142119483983,
        "lon": 163.4268131496638,
        "alt_km": 1027.3792674370034,
        "timestamp": "2025-12-26T17:24:53.442512+00:00",
        "meta_object_name": "HULIANWANG DIGUI-116",
        "meta_object_id": "2025-287C",
        "meta_epoch": "2025-12-24T23:52:55.515936",
        "meta_mean_motion": 13.64194122,
        "meta_eccentricity": 0.00016332,
        "meta_inclination": 86.4919,
        "meta_ra_of_asc_node": 341.6856,
        "meta_arg_of_pericenter": 94.3011,
        "meta_mean_anomaly": 265.8333,
        "meta_ephemeris_type": 0,
        "meta_classification_type": "U",
        "meta_norad_cat_id": 66955,
        "meta_element_set_no": 999,
        "meta_rev_at_epoch": 220,
        "meta_bstar": 0.0001652864,
        "meta_mean_motion_dot": 1.48e-06,
        "meta_mean_motion_ddot": 0,
        "tle_line1": "1 66955U 25287C   25358.99508699  .00000148  00000+0  16529-3 0  9991",
        "tle_line2": "2 66955  86.4919 341.6856 0001633  94.3011 265.8333 13.64194122  2201"
      },
      "geometry": {
        "type": "Point",
        "coordinates": [
          163.4268131496638,
          -33.96142119483983
        ]
      }
    },
    {
      "type": "Feature",
      "properties": {
        "norad_id": 66956,
        "name": "HULIANWANG DIGUI-117",
        "group": "last-30-days",
        "lat": -49.976841334079744,
        "lon": 165.25406601673325,
        "alt_km": 1026.2211491372846,
        "timestamp": "2025-12-26T17:24:53.442521+00:00",
        "meta_object_name": "HULIANWANG DIGUI-117",
        "meta_object_id": "2025-287D",
        "meta_epoch": "2025-12-24T22:03:29.281824",
        "meta_mean_motion": 13.64670553,
        "meta_eccentricity": 0.00010447,
        "meta_inclination": 86.4976,
        "meta_ra_of_asc_node": 341.7257,
        "meta_arg_of_pericenter": 103.5815,
        "meta_mean_anomaly": 256.5458,
        "meta_ephemeris_type": 0,
        "meta_classification_type": "U",
        "meta_norad_cat_id": 66956,
        "meta_element_set_no": 999,
        "meta_rev_at_epoch": 219,
        "meta_bstar": 9.025962e-06,
        "meta_mean_motion_dot": 2.4e-07,
        "meta_mean_motion_ddot": 0,
        "tle_line1": "1 66956U 25287D   25358.91908891  .00000024  00000+0  90260-5 0  9991",
        "tle_line2": "2 66956  86.4976 341.7257 0001044 103.5815 256.5458 13.64670553  2192"
      },
      "geometry": {
        "type": "Point",
        "coordinates": [
          165.25406601673325,
          -49.976841334079744
        ]
      }
    },
    {
      "type": "Feature",
      "properties": {
        "norad_id": 66957,
        "name": "HULIANWANG DIGUI-118",
        "group": "last-30-days",
        "lat": -80.12648488997087,
        "lon": -39.56001111010666,
        "alt_km": 1018.2766286491587,
        "timestamp": "2025-12-26T17:24:53.442531+00:00",
        "meta_object_name": "HULIANWANG DIGUI-118",
        "meta_object_id": "2025-287E",
        "meta_epoch": "2025-12-21T00:50:13.849728",
        "meta_mean_motion": 13.6751011,
        "meta_eccentricity": 0.00054729,
        "meta_inclination": 86.4946,
        "meta_ra_of_asc_node": 343.1304,
        "meta_arg_of_pericenter": 170.9065,
        "meta_mean_anomaly": 189.2194,
        "meta_ephemeris_type": 0,
        "meta_classification_type": "U",
        "meta_norad_cat_id": 66957,
        "meta_element_set_no": 999,
        "meta_rev_at_epoch": 166,
        "meta_bstar": 0.00013223305,
        "meta_mean_motion_dot": 1.28e-06,
        "meta_mean_motion_ddot": 0,
        "tle_line1": "1 66957U 25287E   25355.03488252  .00000128  00000+0  13223-3 0  9993",
        "tle_line2": "2 66957  86.4946 343.1304 0005472 170.9065 189.2194 13.67510110  1668"
      },
      "geometry": {
        "type": "Point",
        "coordinates": [
          -39.56001111010666,
          -80.12648488997087
        ]
      }
    },
    {
      "type": "Feature",
      "properties": {
        "norad_id": 66958,
        "name": "CZ-6A R/B",
        "group": "last-30-days",
        "lat": 2.6212102426362653,
        "lon": 160.62361619917957,
        "alt_km": 949.066887292206,
        "timestamp": "2025-12-26T17:24:53.442541+00:00",
        "meta_object_name": "CZ-6A R/B",
        "meta_object_id": "2025-287F",
        "meta_epoch": "2025-12-26T06:14:55.129920",
        "meta_mean_motion": 13.94921718,
        "meta_eccentricity": 0.01070793,
        "meta_inclination": 86.5066,
        "meta_ra_of_asc_node": 340.9606,
        "meta_arg_of_pericenter": 61.5121,
        "meta_mean_anomaly": 299.6788,
        "meta_ephemeris_type": 0,
        "meta_classification_type": "U",
        "meta_norad_cat_id": 66958,
        "meta_element_set_no": 999,
        "meta_rev_at_epoch": 242,
        "meta_bstar": 6.6084559e-05,
        "meta_mean_motion_dot": 1.12e-06,
        "meta_mean_motion_ddot": 0,
        "tle_line1": "1 66958U 25287F   25360.26036030  .00000112  00000+0  66085-4 0  9996",
        "tle_line2": "2 66958  86.5066 340.9606 0107079  61.5121 299.6788 13.94921718  2427"
      },
      "geometry": {
        "type": "Point",
        "coordinates": [
          160.62361619917957,
          2.6212102426362653
        ]
      }
    },
    {
      "type": "Feature",
      "properties": {
        "norad_id": 66959,
        "name": "STARLINK-35887",
        "group": "last-30-days",
        "lat": -26.294662899403633,
        "lon": 50.082443280856154,
        "alt_km": 391.62152583546504,
        "timestamp": "2025-12-26T17:24:53.442553+00:00",
        "meta_object_name": "STARLINK-35887",
        "meta_object_id": "2025-288A",
        "meta_epoch": "2025-12-26T06:00:02.999808",
        "meta_mean_motion": 15.61210507,
        "meta_eccentricity": 0.0001063,
        "meta_inclination": 42.9999,
        "meta_ra_of_asc_node": 84.928,
        "meta_arg_of_pericenter": 287.0611,
        "meta_mean_anomaly": 238.0622,
        "meta_ephemeris_type": 0,
        "meta_classification_type": "U",
        "meta_norad_cat_id": 66959,
        "meta_element_set_no": 999,
        "meta_rev_at_epoch": 400,
        "meta_bstar": -0.025686238,
        "meta_mean_motion_dot": -0.01967553,
        "meta_mean_motion_ddot": 0,
        "tle_line1": "1 66959U 25288A   25360.25003472 -.01967553  00000+0 -25686-1 0  9994",
        "tle_line2": "2 66959  42.9999  84.9280 0001063 287.0611 238.0622 15.61210507  4000"
      },
      "geometry": {
        "type": "Point",
        "coordinates": [
          50.082443280856154,
          -26.294662899403633
        ]
      }
    },
    {
      "type": "Feature",
      "properties": {
        "norad_id": 66960,
        "name": "STARLINK-35879",
        "group": "last-30-days",
        "lat": -25.17643882438389,
        "lon": 51.805619018038584,
        "alt_km": 391.707995591868,
        "timestamp": "2025-12-26T17:24:53.442565+00:00",
        "meta_object_name": "STARLINK-35879",
        "meta_object_id": "2025-288B",
        "meta_epoch": "2025-12-26T06:00:02.999808",
        "meta_mean_motion": 15.6121135,
        "meta_eccentricity": 0.00010121,
        "meta_inclination": 43.0002,
        "meta_ra_of_asc_node": 84.9225,
        "meta_arg_of_pericenter": 277.2256,
        "meta_mean_anomaly": 249.8128,
        "meta_ephemeris_type": 0,
        "meta_classification_type": "U",
        "meta_norad_cat_id": 66960,
        "meta_element_set_no": 999,
        "meta_rev_at_epoch": 400,
        "meta_bstar": -0.025691934,
        "meta_mean_motion_dot": -0.01967958,
        "meta_mean_motion_ddot": 0,
        "tle_line1": "1 66960U 25288B   25360.25003472 -.01967958  00000+0 -25692-1 0  9992",
        "tle_line2": "2 66960  43.0002  84.9225 0001012 277.2256 249.8128 15.61211350  4006"
      },
      "geometry": {
        "type": "Point",
        "coordinates": [
          51.805619018038584,
          -25.17643882438389
        ]
      }
    }
  ]
}